{
  "type": "FeatureCollection",
  "features": [
    {
      "type": "Feature",
      "properties": {
        "norad_id": 35987,
        "name": "COSMOS 2251 DEB",
        "group": "cosmos-2251-debris",
        "lat": 51.19887075422081,
        "lon": 132.88867450186711,
        "alt_km": 713.569979987893,
        "timestamp": "2025-12-08T21:31:05.063452+00:00",
        "meta_object_name": "COSMOS 2251 DEB",
        "meta_object_id": "1993-036AWD",
        "meta_epoch": "2025-12-08T05:58:00.511392",
        "meta_mean_motion": 14.4308304,
        "meta_eccentricity": 0.00458991,
        "meta_inclination": 73.9997,
        "meta_ra_of_asc_node": 335.0019,
        "meta_arg_of_pericenter": 102.0348,
        "meta_mean_anomaly": 258.5958,
        "meta_ephemeris_type": 0,
        "meta_classification_type": "U",
        "meta_norad_cat_id": 35987,
        "meta_element_set_no": 999,
        "meta_rev_at_epoch": 61000,
        "meta_bstar": 0.0014339453,
        "meta_mean_motion_dot": 4.848e-05,
        "meta_mean_motion_ddot": 0,
        "tle_line1": "1 35987U 93036AWD 25342.24861703  .00004848  00000+0  14339-2 0  9995",
        "tle_line2": "2 35987  73.9997 335.0019 0045899 102.0348 258.5958 14.43083040610008"
      },
      "geometry": {
        "type": "Point",
        "coordinates": [
          132.88867450186711,
          51.19887075422081
        ]
      }
    },
    {
      "type": "Feature",
      "properties": {
        "norad_id": 35989,
        "name": "COSMOS 2251 DEB",
        "group": "cosmos-2251-debris",
        "lat": -67.12836553090409,
        "lon": 153.62509554075106,
        "alt_km": 782.9099479196484,
        "timestamp": "2025-12-08T21:31:05.063463+00:00",
        "meta_object_name": "COSMOS 2251 DEB",
        "meta_object_id": "1993-036AWF",
        "meta_epoch": "2025-12-06T04:51:17.856864",
        "meta_mean_motion": 14.37086268,
        "meta_eccentricity": 0.00218316,
        "meta_inclination": 74.0371,
        "meta_ra_of_asc_node": 295.8482,
        "meta_arg_of_pericenter": 19.4894,
        "meta_mean_anomaly": 340.7089,
        "meta_ephemeris_type": 0,
        "meta_classification_type": "U",
        "meta_norad_cat_id": 35989,
        "meta_element_set_no": 999,
        "meta_rev_at_epoch": 87085,
        "meta_bstar": 0.00043011654,
        "meta_mean_motion_dot": 1.255e-05,
        "meta_mean_motion_ddot": 0,
        "tle_line1": "1 35989U 93036AWF 25340.20229001  .00001255  00000+0  43012-3 0  9990",
        "tle_line2": "2 35989  74.0371 295.8482 0021831  19.4894 340.7089 14.37086268870850"
      },
      "geometry": {
        "type": "Point",
        "coordinates": [
          153.62509554075106,
          -67.12836553090409
        ]
      }
    },
    {
      "type": "Feature",
      "properties": {
        "norad_id": 35993,
        "name": "COSMOS 2251 DEB",
        "group": "cosmos-2251-debris",
        "lat": 69.93206715024205,
        "lon": 108.51415448072488,
        "alt_km": 661.6207134702736,
        "timestamp": "2025-12-08T21:31:05.063472+00:00",
        "meta_object_name": "COSMOS 2251 DEB",
        "meta_object_id": "1993-036AWK",
        "meta_epoch": "2025-12-06T18:15:16.240032",
        "meta_mean_motion": 14.6523351,
        "meta_eccentricity": 0.00292405,
        "meta_inclination": 74.0149,
        "meta_ra_of_asc_node": 344.3189,
        "meta_arg_of_pericenter": 175.7917,
        "meta_mean_anomaly": 184.3503,
        "meta_ephemeris_type": 0,
        "meta_classification_type": "U",
        "meta_norad_cat_id": 35993,
        "meta_element_set_no": 999,
        "meta_rev_at_epoch": 60355,
        "meta_bstar": 0.0012689745,
        "meta_mean_motion_dot": 6.854e-05,
        "meta_mean_motion_ddot": 0,
        "tle_line1": "1 35993U 93036AWK 25340.76060463  .00006854  00000+0  12690-2 0  9998",
        "tle_line2": "2 35993  74.0149 344.3189 0029240 175.7917 184.3503 14.65233510603555"
      },
      "geometry": {
        "type": "Point",
        "coordinates": [
          108.51415448072488,
          69.93206715024205
        ]
      }
    },
    {
      "type": "Feature",
      "properties": {
        "norad_id": 35996,
        "name": "COSMOS 2251 DEB",
        "group": "cosmos-2251-debris",
        "lat": -53.09355090538763,
        "lon": 88.91539964484743,
        "alt_km": 556.7063498388561,
        "timestamp": "2025-12-08T21:31:05.063483+00:00",
        "meta_object_name": "COSMOS 2251 DEB",
        "meta_object_id": "1993-036AWN",
        "meta_epoch": "2025-12-06T15:40:07.668192",
        "meta_mean_motion": 15.08900528,
        "meta_eccentricity": 0.00890114,
        "meta_inclination": 74.0155,
        "meta_ra_of_asc_node": 115.9821,
        "meta_arg_of_pericenter": 208.3907,
        "meta_mean_anomaly": 151.2421,
        "meta_ephemeris_type": 0,
        "meta_classification_type": "U",
        "meta_norad_cat_id": 35996,
        "meta_element_set_no": 999,
        "meta_rev_at_epoch": 72234,
        "meta_bstar": 0.001269926,
        "meta_mean_motion_dot": 0.00021998,
        "meta_mean_motion_ddot": 0,
        "tle_line1": "1 35996U 93036AWN 25340.65286653  .00021998  00000+0  12699-2 0  9995",
        "tle_line2": "2 35996  74.0155 115.9821 0089011 208.3907 151.2421 15.08900528722343"
      },
      "geometry": {
        "type": "Point",
        "coordinates": [
          88.91539964484743,
          -53.09355090538763
        ]
      }
    },
    {
      "type": "Feature",
      "properties": {
        "norad_id": 35997,
        "name": "COSMOS 2251 DEB",
        "group": "cosmos-2251-debris",
        "lat": 62.93024380344345,
        "lon": -19.524962975399518,
        "alt_km": 725.3925476094428,
        "timestamp": "2025-12-08T21:31:05.063493+00:00",
        "meta_object_name": "COSMOS 2251 DEB",
        "meta_object_id": "1993-036AWP",
        "meta_epoch": "2025-12-08T07:46:01.905888",
        "meta_mean_motion": 14.51283531,
        "meta_eccentricity": 0.00158531,
        "meta_inclination": 74.0427,
        "meta_ra_of_asc_node": 195.599,
        "meta_arg_of_pericenter": 271.3271,
        "meta_mean_anomaly": 88.6073,
        "meta_ephemeris_type": 0,
        "meta_classification_type": "U",
        "meta_norad_cat_id": 35997,
        "meta_element_set_no": 999,
        "meta_rev_at_epoch": 70820,
        "meta_bstar": 0.00095919094,
        "meta_mean_motion_dot": 3.797e-05,
        "meta_mean_motion_ddot": 0,
        "tle_line1": "1 35997U 93036AWP 25342.32363317  .00003797  00000+0  95919-3 0  9999",
        "tle_line2": "2 35997  74.0427 195.5990 0015853 271.3271  88.6073 14.51283531708204"
      },
      "geometry": {
        "type": "Point",
        "coordinates": [
          -19.524962975399518,
          62.93024380344345
        ]
      }
    },
    {
      "type": "Feature",
      "properties": {
        "norad_id": 36005,
        "name": "COSMOS 2251 DEB",
        "group": "cosmos-2251-debris",
        "lat": -17.123037300686807,
        "lon": -73.7411025935462,
        "alt_km": 705.7525272249259,
        "timestamp": "2025-12-08T21:31:05.063503+00:00",
        "meta_object_name": "COSMOS 2251 DEB",
        "meta_object_id": "1993-036AWX",
        "meta_epoch": "2025-12-08T08:59:25.241280",
        "meta_mean_motion": 14.47347528,
        "meta_eccentricity": 0.00620288,
        "meta_inclination": 74.0263,
        "meta_ra_of_asc_node": 102.1725,
        "meta_arg_of_pericenter": 240.4032,
        "meta_mean_anomaly": 119.0938,
        "meta_ephemeris_type": 0,
        "meta_classification_type": "U",
        "meta_norad_cat_id": 36005,
        "meta_element_set_no": 999,
        "meta_rev_at_epoch": 87521,
        "meta_bstar": 0.00041446573,
        "meta_mean_motion_dot": 1.527e-05,
        "meta_mean_motion_ddot": 0,
        "tle_line1": "1 36005U 93036AWX 25342.37459770  .00001527  00000+0  41447-3 0  9990",
        "tle_line2": "2 36005  74.0263 102.1725 0062028 240.4032 119.0938 14.47347528875218"
      },
      "geometry": {
        "type": "Point",
        "coordinates": [
          -73.7411025935462,
          -17.123037300686807
        ]
      }
    },
    {
      "type": "Feature",
      "properties": {
        "norad_id": 36045,
        "name": "COSMOS 2251 DEB",
        "group": "cosmos-2251-debris",
        "lat": -53.00346866467859,
        "lon": 43.91092338625783,
        "alt_km": 693.9984365490827,
        "timestamp": "2025-12-08T21:31:05.063514+00:00",
        "meta_object_name": "COSMOS 2251 DEB",
        "meta_object_id": "1993-036AXG",
        "meta_epoch": "2025-12-06T12:35:46.842144",
        "meta_mean_motion": 14.69624154,
        "meta_eccentricity": 0.00486216,
        "meta_inclination": 73.7645,
        "meta_ra_of_asc_node": 71.3331,
        "meta_arg_of_pericenter": 87.3165,
        "meta_mean_anomaly": 273.3569,
        "meta_ephemeris_type": 0,
        "meta_classification_type": "U",
        "meta_norad_cat_id": 36045,
        "meta_element_set_no": 999,
        "meta_rev_at_epoch": 8297,
        "meta_bstar": 0.0044051955,
        "meta_mean_motion_dot": 0.00026747,
        "meta_mean_motion_ddot": 0,
        "tle_line1": "1 36045U 93036AXG 25340.52484771  .00026747  00000+0  44052-2 0  9993",
        "tle_line2": "2 36045  73.7645  71.3331 0048621  87.3165 273.3569 14.69624154 82974"
      },
      "geometry": {
        "type": "Point",
        "coordinates": [
          43.91092338625783,
          -53.00346866467859
        ]
      }
    }
  ]
}